start=new Date('2021-12-26T00:00:00.000Z').valueOf();
sats=[{"BSTAR":"0.00004003400000","OBJECT_ID":"2021-009D","INCLINATION":"53.0547","RCS_SIZE":"LARGE","DECAY_DATE":null,"EPOCH":"2021-12-25T16:23:37.454496","FILE":"3250974","PERIAPSIS":"546.251","GP_ID":"192456754","ECCENTRICITY":"0.00013700","ARG_OF_PERICENTER":"85.9240","SEMIMAJOR_AXIS":"6925.335","MEAN_MOTION":"15.06404363","RA_OF_ASC_NODE":"72.5268","TLE_LINE1":"1 47551U 21009D   21359.68307239  .00000315  00000-0  40034-4 0  9996","REV_AT_EPOCH":"4943","SITE":"AFETR","MEAN_MOTION_DDOT":"0.0000000000000","PERIOD":"95.592","CLASSIFICATION_TYPE":"U","NORAD_CAT_ID":"47551","MEAN_ANOMALY":"274.1905","CENTER_NAME":"EARTH","MEAN_MOTION_DOT":"0.00000315","OBJECT_NAME":"STARLINK-1938","COUNTRY_CODE":"US","OBJECT_TYPE":"PAYLOAD","TLE_LINE2":"2 47551  53.0547  72.5268 0001370  85.9240 274.1905 15.06404363 49437","LAUNCH_DATE":"2021-02-04","TIME_SYSTEM":"UTC","APOAPSIS":"548.149","EPHEMERIS_TYPE":"0","ELEMENT_SET_NO":"999","MEAN_ELEMENT_THEORY":"SGP4","REF_FRAME":"TEME"},{"ARG_OF_PERICENTER":"88.3421","ECCENTRICITY":"0.00011660","RA_OF_ASC_NODE":"63.1112","SEMIMAJOR_AXIS":"6925.370","MEAN_MOTION":"15.06392957","REV_AT_EPOCH":"4955","TLE_LINE1":"1 47552U 21009E   21359.55500179 -.00000137  00000-0  96880-5 0  9995","OBJECT_ID":"2021-009E","BSTAR":"0.00000968800000","INCLINATION":"53.0543","RCS_SIZE":"LARGE","EPOCH":"2021-12-25T13:19:12.154656","DECAY_DATE":null,"FILE":"3250775","GP_ID":"192429292","PERIAPSIS":"546.428","TIME_SYSTEM":"UTC","LAUNCH_DATE":"2021-02-04","ELEMENT_SET_NO":"999","APOAPSIS":"548.043","EPHEMERIS_TYPE":"0","REF_FRAME":"TEME","MEAN_ELEMENT_THEORY":"SGP4","MEAN_MOTION_DDOT":"0.0000000000000","PERIOD":"95.593","SITE":"AFETR","MEAN_MOTION_DOT":"-0.00000137","CLASSIFICATION_TYPE":"U","NORAD_CAT_ID":"47552","MEAN_ANOMALY":"271.7701","CENTER_NAME":"EARTH","OBJECT_TYPE":"PAYLOAD","TLE_LINE2":"2 47552  53.0543  63.1112 0001166  88.3421 271.7701 15.06392957 49554","OBJECT_NAME":"STARLINK-1940","COUNTRY_CODE":"US"},{"SEMIMAJOR_AXIS":"6848.320","RA_OF_ASC_NODE":"59.8740","MEAN_MOTION":"15.31887022","ARG_OF_PERICENTER":"41.2734","ECCENTRICITY":"0.00020220","REV_AT_EPOCH":"5019","TLE_LINE1":"1 47553U 21009F   21359.45769452  .00121072  00000-0  38277-2 0  9990","RCS_SIZE":"LARGE","INCLINATION":"53.0595","OBJECT_ID":"2021-009F","BSTAR":"0.00382770000000","GP_ID":"192434838","PERIAPSIS":"468.800","FILE":"3250955","DECAY_DATE":null,"EPOCH":"2021-12-25T10:59:04.806528","TIME_SYSTEM":"UTC","LAUNCH_DATE":"2021-02-04","REF_FRAME":"TEME","MEAN_ELEMENT_THEORY":"SGP4","ELEMENT_SET_NO":"999","APOAPSIS":"471.569","EPHEMERIS_TYPE":"0","PERIOD":"94.002","MEAN_MOTION_DDOT":"0.0000000000000","SITE":"AFETR","TLE_LINE2":"2 47553  53.0595  59.8740 0002022  41.2734 318.8418 15.31887022 50198","OBJECT_TYPE":"PAYLOAD","COUNTRY_CODE":"US","OBJECT_NAME":"STARLINK-1951","MEAN_MOTION_DOT":"0.00121072","NORAD_CAT_ID":"47553","MEAN_ANOMALY":"318.8418","CENTER_NAME":"EARTH","CLASSIFICATION_TYPE":"U"},{"ECCENTRICITY":"0.00031010","ARG_OF_PERICENTER":"173.3780","SEMIMAJOR_AXIS":"6925.384","MEAN_MOTION":"15.06388430","RA_OF_ASC_NODE":"82.7824","TLE_LINE1":"1 47554U 21009G   21359.62687920  .00000657  00000-0  63042-4 0  9994","REV_AT_EPOCH":"4928","BSTAR":"0.00006304200000","OBJECT_ID":"2021-009G","RCS_SIZE":"LARGE","INCLINATION":"53.0564","FILE":"3250974","DECAY_DATE":null,"EPOCH":"2021-12-25T15:02:42.362880","PERIAPSIS":"545.101","GP_ID":"192456504","LAUNCH_DATE":"2021-02-04","TIME_SYSTEM":"UTC","EPHEMERIS_TYPE":"0","APOAPSIS":"549.397","ELEMENT_SET_NO":"999","MEAN_ELEMENT_THEORY":"SGP4","REF_FRAME":"TEME","SITE":"AFETR","PERIOD":"95.593","MEAN_MOTION_DDOT":"0.0000000000000","NORAD_CAT_ID":"47554","MEAN_ANOMALY":"186.7251","CENTER_NAME":"EARTH","CLASSIFICATION_TYPE":"U","MEAN_MOTION_DOT":"0.00000657","COUNTRY_CODE":"US","OBJECT_NAME":"STARLINK-1953","TLE_LINE2":"2 47554  53.0564  82.7824 0003101 173.3780 186.7251 15.06388430 49286","OBJECT_TYPE":"PAYLOAD"},{"ECCENTRICITY":"0.00012730","ARG_OF_PERICENTER":"103.2923","SEMIMAJOR_AXIS":"6925.412","MEAN_MOTION":"15.06379323","RA_OF_ASC_NODE":"73.1977","TLE_LINE1":"1 47555U 21009H   21359.53564814 -.00003633  00000-0 -22525-3 0  9990","REV_AT_EPOCH":"4941","BSTAR":"-0.00022525000000","OBJECT_ID":"2021-009H","RCS_SIZE":"LARGE","INCLINATION":"53.0531","FILE":"3250775","DECAY_DATE":null,"EPOCH":"2021-12-25T12:51:19.999296","PERIAPSIS":"546.395","GP_ID":"192429042","LAUNCH_DATE":"2021-02-04","TIME_SYSTEM":"UTC","APOAPSIS":"548.159","EPHEMERIS_TYPE":"0","ELEMENT_SET_NO":"999","MEAN_ELEMENT_THEORY":"SGP4","REF_FRAME":"TEME","SITE":"AFETR","PERIOD":"95.593","MEAN_MOTION_DDOT":"0.0000000000000","CENTER_NAME":"EARTH","NORAD_CAT_ID":"47555","MEAN_ANOMALY":"256.8208","CLASSIFICATION_TYPE":"U","MEAN_MOTION_DOT":"-0.00003633","COUNTRY_CODE":"US","OBJECT_NAME":"STARLINK-1954","TLE_LINE2":"2 47555  53.0531  73.1977 0001273 103.2923 256.8208 15.06379323 49410","OBJECT_TYPE":"PAYLOAD"},{"ARG_OF_PERICENTER":"95.3628","ECCENTRICITY":"0.00010820","RA_OF_ASC_NODE":"92.1330","SEMIMAJOR_AXIS":"6925.377","MEAN_MOTION":"15.06390760","REV_AT_EPOCH":"4916","TLE_LINE1":"1 47556U 21009J   21359.76970212  .00000406  00000-0  46120-4 0  9990","OBJECT_ID":"2021-009J","BSTAR":"0.00004612000000","RCS_SIZE":"LARGE","INCLINATION":"53.0543","FILE":"3250974","EPOCH":"2021-12-25T18:28:22.263168","DECAY_DATE":null,"GP_ID":"192457506","PERIAPSIS":"546.493","TIME_SYSTEM":"UTC","LAUNCH_DATE":"2021-02-04","ELEMENT_SET_NO":"999","APOAPSIS":"547.991","EPHEMERIS_TYPE":"0","REF_FRAME":"TEME","MEAN_ELEMENT_THEORY":"SGP4","PERIOD":"95.593","MEAN_MOTION_DDOT":"0.0000000000000","SITE":"AFETR","MEAN_MOTION_DOT":"0.00000406","CENTER_NAME":"EARTH","NORAD_CAT_ID":"47556","MEAN_ANOMALY":"264.7484","CLASSIFICATION_TYPE":"U","TLE_LINE2":"2 47556  53.0543  92.1330 0001082  95.3628 264.7484 15.06390760 49163","OBJECT_TYPE":"PAYLOAD","COUNTRY_CODE":"US","OBJECT_NAME":"STARLINK-1955"},{"REV_AT_EPOCH":"4916","TLE_LINE1":"1 47557U 21009K   21359.73283303 -.00000787  00000-0 -33918-4 0  9991","ARG_OF_PERICENTER":"86.4302","ECCENTRICITY":"0.00013340","RA_OF_ASC_NODE":"92.3192","SEMIMAJOR_AXIS":"6925.356","MEAN_MOTION":"15.06397583","EPOCH":"2021-12-25T17:35:16.773792","DECAY_DATE":null,"FILE":"3250974","GP_ID":"192458254","PERIAPSIS":"546.297","OBJECT_ID":"2021-009K","BSTAR":"-0.00003391800000","INCLINATION":"53.0541","RCS_SIZE":"LARGE","ELEMENT_SET_NO":"999","APOAPSIS":"548.145","EPHEMERIS_TYPE":"0","REF_FRAME":"TEME","MEAN_ELEMENT_THEORY":"SGP4","TIME_SYSTEM":"UTC","LAUNCH_DATE":"2021-02-04","MEAN_MOTION_DOT":"-0.00000787","CLASSIFICATION_TYPE":"U","CENTER_NAME":"EARTH","NORAD_CAT_ID":"47557","MEAN_ANOMALY":"273.6839","OBJECT_TYPE":"PAYLOAD","TLE_LINE2":"2 47557  53.0541  92.3192 0001334  86.4302 273.6839 15.06397583 49163","OBJECT_NAME":"STARLINK-1956","COUNTRY_CODE":"US","MEAN_MOTION_DDOT":"0.0000000000000","PERIOD":"95.592","SITE":"AFETR"},{"ELEMENT_SET_NO":"999","APOAPSIS":"548.010","EPHEMERIS_TYPE":"0","REF_FRAME":"TEME","MEAN_ELEMENT_THEORY":"SGP4","TIME_SYSTEM":"UTC","LAUNCH_DATE":"2021-02-04","MEAN_MOTION_DOT":"0.00002291","CLASSIFICATION_TYPE":"U","NORAD_CAT_ID":"47558","CENTER_NAME":"EARTH","MEAN_ANOMALY":"283.1458","OBJECT_TYPE":"PAYLOAD","TLE_LINE2":"2 47558  53.0559  62.6829 0001150  76.9659 283.1458 15.06399940 49561","COUNTRY_CODE":"US","OBJECT_NAME":"STARLINK-1957","MEAN_MOTION_DDOT":"0.0000000000000","PERIOD":"95.592","SITE":"AFETR","REV_AT_EPOCH":"4956","TLE_LINE1":"1 47558U 21009L   21359.64714280  .00002291  00000-0  17261-3 0  9997","ARG_OF_PERICENTER":"76.9659","ECCENTRICITY":"0.00011500","SEMIMAJOR_AXIS":"6925.349","RA_OF_ASC_NODE":"62.6829","MEAN_MOTION":"15.06399940","EPOCH":"2021-12-25T15:31:53.137920","DECAY_DATE":null,"FILE":"3250974","GP_ID":"192457004","PERIAPSIS":"546.417","OBJECT_ID":"2021-009L","BSTAR":"0.00017261000000","INCLINATION":"53.0559","RCS_SIZE":"LARGE"},{"OBJECT_ID":"2021-009M","BSTAR":"0.00006993800000","INCLINATION":"53.0533","RCS_SIZE":"LARGE","EPOCH":"2021-12-25T14:40:08.981184","DECAY_DATE":null,"FILE":"3250974","GP_ID":"192456755","PERIAPSIS":"546.138","ARG_OF_PERICENTER":"72.1382","ECCENTRICITY":"0.00015730","RA_OF_ASC_NODE":"52.8564","SEMIMAJOR_AXIS":"6925.362","MEAN_MOTION":"15.06395501","REV_AT_EPOCH":"4970","TLE_LINE1":"1 47559U 21009M   21359.61121506  .00000760  00000-0  69938-4 0  9996","MEAN_MOTION_DDOT":"0.0000000000000","PERIOD":"95.592","SITE":"AFETR","MEAN_MOTION_DOT":"0.00000760","CLASSIFICATION_TYPE":"U","CENTER_NAME":"EARTH","NORAD_CAT_ID":"47559","MEAN_ANOMALY":"287.9779","OBJECT_TYPE":"PAYLOAD","TLE_LINE2":"2 47559  53.0533  52.8564 0001573  72.1382 287.9779 15.06395501 49704","COUNTRY_CODE":"US","OBJECT_NAME":"STARLINK-1958","TIME_SYSTEM":"UTC","LAUNCH_DATE":"2021-02-04","ELEMENT_SET_NO":"999","APOAPSIS":"548.317","EPHEMERIS_TYPE":"0","REF_FRAME":"TEME","MEAN_ELEMENT_THEORY":"SGP4"},{"ARG_OF_PERICENTER":"84.2505","ECCENTRICITY":"0.00012740","SEMIMAJOR_AXIS":"6925.372","MEAN_MOTION":"15.06392230","RA_OF_ASC_NODE":"52.5990","REV_AT_EPOCH":"4971","TLE_LINE1":"1 47560U 21009N   21359.67018445 -.00001319  00000-0 -69663-4 0  9999","OBJECT_ID":"2021-009N","BSTAR":"-0.00006966300000","INCLINATION":"53.0556","RCS_SIZE":"LARGE","DECAY_DATE":null,"EPOCH":"2021-12-25T16:05:03.936480","FILE":"3250974","GP_ID":"192458006","PERIAPSIS":"546.355","TIME_SYSTEM":"UTC","LAUNCH_DATE":"2021-02-04","ELEMENT_SET_NO":"999","EPHEMERIS_TYPE":"0","APOAPSIS":"548.120","REF_FRAME":"TEME","MEAN_ELEMENT_THEORY":"SGP4","MEAN_MOTION_DDOT":"0.0000000000000","PERIOD":"95.593","SITE":"AFETR","MEAN_MOTION_DOT":"-0.00001319","CLASSIFICATION_TYPE":"U","NORAD_CAT_ID":"47560","MEAN_ANOMALY":"275.8629","CENTER_NAME":"EARTH","OBJECT_TYPE":"PAYLOAD","TLE_LINE2":"2 47560  53.0556  52.5990 0001274  84.2505 275.8629 15.06392230 49717","COUNTRY_CODE":"US","OBJECT_NAME":"STARLINK-1959"}];
